[{"OBJECT_NAME":"STARLINK-6380","OBJECT_ID":"2023-099S","EPOCH":"2026-03-09T12:33:16.917408","MEAN_MOTION":15.02540942,"ECCENTRICITY":0.00014676,"INCLINATION":43.0018,"RA_OF_ASC_NODE":249.6909,"ARG_OF_PERICENTER":272.2742,"MEAN_ANOMALY":87.7932,"EPHEMERIS_TYPE":0,"CLASSIFICATION_TYPE":"U","NORAD_CAT_ID":57344,"ELEMENT_SET_NO":999,"REV_AT_EPOCH":14609,"BSTAR":-0.00024606554,"MEAN_MOTION_DOT":-3.526e-5,"MEAN_MOTION_DDOT":0},{"OBJECT_NAME":"FENGYUN 1C DEB","OBJECT_ID":"1999-025BUD","EPOCH":"2026-03-07T11:11:12.390432","MEAN_MOTION":14.83443137,"ECCENTRICITY":0.00894999,"INCLINATION":99.307,"RA_OF_ASC_NODE":307.5923,"ARG_OF_PERICENTER":70.0629,"MEAN_ANOMALY":291.0194,"EPHEMERIS_TYPE":0,"CLASSIFICATION_TYPE":"U","NORAD_CAT_ID":31441,"ELEMENT_SET_NO":999,"REV_AT_EPOCH":65343,"BSTAR":0.0080119516,"MEAN_MOTION_DOT":0.00071223,"MEAN_MOTION_DDOT":0}]
